*******************************************************************************
 Revised: Jun 17, 2016             Io  / (Jupiter)                          501

 SATELLITE PHYSICAL PROPERTIES:
  Radius (km)             = 1821.3 +- 0.2   Density (g cm^-3)   =  3.530 +-.006
  Mass (10^20 kg )        =  893.3 +- 1.5   Geometric Albedo    =  0.6  

 SATELLITE ORBITAL DATA:
  Semi-major axis, a (km) = 421.769 (10^3)  Orbital period      = 1.769138 d
  Eccentricity, e         = 0.0041          Rotational period   = Synchronous
  Inclination, i  (deg)   = 0.036
*******************************************************************************
 
 
*******************************************************************************
Ephemeris / WWW_USER Thu Jul 20 06:11:43 2017 Pasadena, USA      / Horizons    
*******************************************************************************
Target body name: Io (501)                        {source: jup310}
Center body name: Sun (10)                        {source: DE431mx}
Center-site name: BODY CENTER
*******************************************************************************
Start time      : A.D. 2017-Jul-10 00:00:00.0000 TDB
Stop  time      : A.D. 2020-Aug-13 00:00:00.0000 TDB
Step-size       : 1440 minutes
*******************************************************************************
Center geodetic : 0.00000000,0.00000000,0.0000000 {E-lon(deg),Lat(deg),Alt(km)}
Center cylindric: 0.00000000,0.00000000,0.0000000 {E-lon(deg),Dxy(km),Dz(km)}
Center radii    : 696000.0 x 696000.0 x 696000.0 k{Equator, meridian, pole}    
Output units    : KM-S                                                         
Output type     : GEOMETRIC cartesian states
Output format   : 2 (position and velocity)
Reference frame : ICRF/J2000.0                                                 
Coordinate systm: Ecliptic and Mean Equinox of Reference Epoch                 
*******************************************************************************
            JDTDB,            Calendar Date (TDB),                      X,                      Y,                      Z,                     VX,                     VY,                     VZ,
**************************************************************************************************************************************************************************************************
$$SOE
2458139.500000000, A.D. 2018-Jan-21 00:00:00.0000, -6.238821042967403E+08, -5.204062879892012E+08,  1.610011125329041E+07,  1.587951757788683E+01, -2.505025489068741E+01, -5.968858855280796E-01,
2458140.500000000, A.D. 2018-Jan-22 00:00:00.0000, -6.225188863170350E+08, -5.207142982050268E+08,  1.611488544941443E+07, -4.903590884296235E+00,  1.793358485406681E+00,  7.165855023984902E-02,
2458141.500000000, A.D. 2018-Jan-23 00:00:00.0000, -6.222020243807533E+08, -5.222512097583330E+08,  1.607083172413608E+07,  2.489685045883679E+01, -1.441404319126584E+01, -9.088478669972044E-02,
2458142.500000000, A.D. 2018-Jan-24 00:00:00.0000, -6.214143844239120E+08, -5.222406293875388E+08,  1.608876673436075E+07, -8.940296735031591E+00, -1.130423359725729E+01, -4.562588219504180E-01,
2458143.500000000, A.D. 2018-Jan-25 00:00:00.0000, -6.204404997224231E+08, -5.238344254552077E+08,  1.605175164807171E+07,  2.323417295273764E+01, -6.449865069521913E-01,  3.772405849351276E-01,
2458144.500000000, A.D. 2018-Jan-26 00:00:00.0000, -6.202763639970777E+08, -5.240288157550764E+08,  1.605341420071790E+07, -2.077774139890017E+00, -2.329146688117028E+01, -7.911895049845743E-01,
2458145.500000000, A.D. 2018-Jan-27 00:00:00.0000, -6.188101804524664E+08, -5.251831021591079E+08,  1.603890893292695E+07,  1.212512621061138E+01,  7.481658066746521E+00,  5.104083554915197E-01,
2458146.500000000, A.D. 2018-Jan-28 00:00:00.0000, -6.189183419335386E+08, -5.259741597240648E+08,  1.601519980917862E+07,  1.148090108974169E+01, -2.645134349083968E+01, -7.156618293323138E-01,
2458147.500000000, A.D. 2018-Jan-29 00:00:00.0000, -6.174352337312162E+08, -5.264692022008778E+08,  1.602439717456397E+07, -1.328179299467062E+00,  4.974539694441043E+00,  2.295620354025472E-01,
2458148.500000000, A.D. 2018-Jan-30 00:00:00.0000, -6.172904914730041E+08, -5.278667773200853E+08,  1.598234547131279E+07,  2.303514596802679E+01, -1.863267142192861E+01, -2.748767685803184E-01,
2458149.500000000, A.D. 2018-Jan-31 00:00:00.0000, -6.162765400047959E+08, -5.278998988333235E+08,  1.600134106400108E+07, -8.721896282467259E+00, -6.547540335974778E+00, -2.892224807049595E-01,
2458150.500000000, A.D. 2018-Feb-01 00:00:00.0000, -6.155143156621326E+08, -5.295278126404141E+08,  1.595955334194693E+07,  2.513927988079829E+01, -4.901336146056035E+00,  2.450011504548066E-01,
2458151.500000000, A.D. 2018-Feb-02 00:00:00.0000, -6.151564639913795E+08, -5.295901249176408E+08,  1.596811708010131E+07, -5.338715615600627E+00, -1.990734919713271E+01, -7.224094128801530E-01,
2458152.500000000, A.D. 2018-Feb-03 00:00:00.0000, -6.138023824570608E+08, -5.309259461913506E+08,  1.594495828979215E+07,  1.659914558258750E+01,  5.925582263663609E+00,  5.111756341699354E-01,
2458153.500000000, A.D. 2018-Feb-04 00:00:00.0000, -6.138677707773333E+08, -5.314890654395118E+08,  1.592945787907386E+07,  6.851472053704228E+00, -2.658578142800871E+01, -7.923073458838665E-01,
2458154.500000000, A.D. 2018-Feb-05 00:00:00.0000, -6.123208590251070E+08, -5.321938431954362E+08,  1.593147044411209E+07,  2.950986136524972E+00,  7.113088952547737E+00,  3.600206629064173E-01,
2458155.500000000, A.D. 2018-Feb-06 00:00:00.0000, -6.123060207810168E+08, -5.334084223752868E+08,  1.589358137034592E+07,  2.008509802185408E+01, -2.216549225809928E+01, -4.496832028620101E-01,
2458156.500000000, A.D. 2018-Feb-07 00:00:00.0000, -6.110873454220438E+08, -5.335417773216058E+08,  1.591130414145741E+07, -7.255832724382728E+00, -1.998127609184530E+00, -1.119977801261902E-01,
2458157.500000000, A.D. 2018-Feb-08 00:00:00.0000, -6.105397986427470E+08, -5.351431713201473E+08,  1.586687365819883E+07,  2.581257398272475E+01, -9.487497464691117E+00,  8.350772616227697E-02,
2458158.500000000, A.D. 2018-Feb-09 00:00:00.0000, -6.099614434593278E+08, -5.351276872950980E+08,  1.588076960219431E+07, -7.586195621747128E+00, -1.574673943032694E+01, -6.114787510448512E-01,
2458159.500000000, A.D. 2018-Feb-10 00:00:00.0000, -6.087657644152845E+08, -5.366056827043949E+08,  1.584971281424776E+07,  2.047746432192830E+01,  3.256424766151973E+00,  4.635981308822434E-01,
2458160.500000000, A.D. 2018-Feb-11 00:00:00.0000, -6.087303849620688E+08, -5.369581553624296E+08,  1.584261983265877E+07,  2.338921148578816E+00, -2.543898697680671E+01, -8.213720655440326E-01,
2458161.500000000, A.D. 2018-Feb-12 00:00:00.0000, -6.071800952159280E+08, -5.378794915108911E+08,  1.583634798413363E+07,  7.626929098048044E+00,  8.058835435560518E+00,  4.533079151639101E-01,
2458162.500000000, A.D. 2018-Feb-13 00:00:00.0000, -6.072430394742515E+08, -5.388804542543337E+08,  1.580445574910167E+07,  1.626863464568569E+01, -2.474499659291004E+01, -6.025560944908097E-01,
2458163.500000000, A.D. 2018-Feb-14 00:00:00.0000, -6.058558689405704E+08, -5.391628826262416E+08,  1.581864182180250E+07, -4.646840438176488E+00,  2.016417512886503E+00,  6.219863192371300E-02,
2458164.500000000, A.D. 2018-Feb-15 00:00:00.0000, -6.055097886447140E+08, -5.406788047822486E+08,  1.577386918422794E+07,  2.520675007248082E+01, -1.406334736442047E+01, -9.569727974192155E-02,
2458165.500000000, A.D. 2018-Feb-16 00:00:00.0000, -6.046997779036999E+08, -5.406453038590817E+08,  1.579111094857633E+07, -8.650957272656786E+00, -1.111497867585272E+01, -4.669361813721618E-01,
2458166.500000000, A.D. 2018-Feb-17 00:00:00.0000, -6.036964861087358E+08, -5.422154543168360E+08,  1.575346945834154E+07,  2.348353114420258E+01, -3.305818114430177E-01,  3.707705134665589E-01,
2458167.500000000, A.D. 2018-Feb-18 00:00:00.0000, -6.035089472449260E+08, -5.423897663934982E+08,  1.575434486795720E+07, -1.713157335143072E+00, -2.309405944715293E+01, -8.009628028121671E-01,
2458168.500000000, A.D. 2018-Feb-19 00:00:00.0000, -6.020150739546014E+08, -5.435181896843489E+08,  1.573928262216949E+07,  1.236999027539864E+01,  7.747659243409963E+00,  5.024547263337595E-01,
2458169.500000000, A.D. 2018-Feb-20 00:00:00.0000, -6.020970689306660E+08, -5.442900809102683E+08,  1.571477095523068E+07,  1.187847870407640E+01, -2.617220078975378E+01, -7.222165241478660E-01,
2458170.500000000, A.D. 2018-Feb-21 00:00:00.0000, -6.005891557669055E+08, -5.447588247282844E+08,  1.572340858809215E+07, -1.077591050638302E+00,  5.212639454248468E+00,  2.206028508704050E-01,
2458171.500000000, A.D. 2018-Feb-22 00:00:00.0000, -6.004157692889426E+08, -5.461358643858389E+08,  1.568061511935574E+07,  2.337156946105130E+01, -1.828227085864622E+01, -2.794883370258940E-01,
2458172.500000000, A.D. 2018-Feb-23 00:00:00.0000, -5.993793029329654E+08, -5.461446782573583E+08,  1.569896371467352E+07, -8.451061487489536E+00, -6.344251426990525E+00, -2.995504048628228E-01,
2458173.500000000, A.D. 2018-Feb-24 00:00:00.0000, -5.985876853983045E+08, -5.477494279998788E+08,  1.565652817067978E+07,  2.540119622980290E+01, -4.566460306069169E+00,  2.392661815179626E-01,
2458174.500000000, A.D. 2018-Feb-25 00:00:00.0000, -5.982072804109499E+08, -5.477904089528642E+08,  1.566433773121423E+07, -5.000454789222150E+00, -1.971825930748746E+01, -7.327798290655583E-01,
2458175.500000000, A.D. 2018-Feb-26 00:00:00.0000, -5.968250449238579E+08, -5.491005323172311E+08,  1.564061405983514E+07,  1.683985226756353E+01,  6.209096531443135E+00,  5.036929338466338E-01,
2458176.500000000, A.D. 2018-Feb-27 00:00:00.0000, -5.968655870819824E+08, -5.496440680963982E+08,  1.562431128692946E+07,  7.244537991774092E+00, -2.633327423402834E+01, -7.999097993785220E-01,
2458177.500000000, A.D. 2018-Feb-28 00:00:00.0000, -5.952932308268301E+08, -5.503220969308673E+08,  1.562577979406342E+07,  3.194389069674370E+00,  7.365620020138611E+00,  3.515013925792196E-01,
